full_name,a,e,i,om,w,q,ad,per_y,H,neo,pha,rot_per
292766 (2006 UX193),3.049919825711063,0.07660800003167521,2.571801594019101,208.5952260594539,180.6957736259758,2.816271567606383,3.283568083815742,5.32648657602922,16.15,N,N,
115355 (2003 SQ246),3.122383594657225,0.1905820563665233,0.6260313728899622,202.0555303625487,135.7463578145725,2.527313308422355,3.717453880892096,5.51743959167924,15.18,N,N,
 88912 (2001 TS8),2.272290262058601,0.123167594067616,7.222729545325288,286.2385379787705,104.542529984995,1.99241773745757,2.552162786659631,3.42534179104019,15.23,N,N,
164751 (1998 UW3),2.764157361780013,0.06165450238004657,4.759163995235983,233.8356170634487,244.2239531101774,2.593734615139324,2.934580108420702,4.59570716043881,15.82,N,N,
 24483 (2000 XK50),2.417149833113948,0.2149710334045836,11.13558041436539,43.09555083967233,1.786631972959037,1.897532635595726,2.93676703063217,3.75805870852277,14.55,N,N,3.67796
 17683 Kanagawa (1997 AR16),2.983176427281876,0.1589142071977733,18.29012914941012,358.655844055943,194.149519814357,2.509107310409291,3.457245544154461,5.15260214762391,12.75,N,N,5.895
235894 (2005 CD62),3.145651536067476,0.1297327296225324,5.213957188455173,104.9177912237945,39.59724954868109,2.737557575852131,3.553745496282822,5.57922812502593,15.58,N,N,
 25457 Mariannamao (1999 XH13),2.797825537610601,0.1633233265178265,8.514211462084289,193.7160391034527,273.8113999527631,2.340875363791512,3.25477571142969,4.6799277372797,14.85,N,N,8.468
 49228 (1998 SK137),2.633727291488378,0.08320068432491061,5.707520147303668,94.21554928103046,157.1422422272626,2.414599378511352,2.852855204465405,4.27429417022354,14.6,N,N,
 29342 (1995 CF1),2.537139465053857,0.1862426033811179,8.344932461633812,104.3420275941029,9.55479485660193,2.064616005941249,3.009662924166464,4.04133370992933,14.28,N,N,
  6359 Dubinin (1977 AZ1),3.206827714489164,0.1058550701144047,10.72355601658104,89.18122552285408,39.61353109550588,2.867368741927098,3.546286687051231,5.74277293126971,11.57,N,N,14.062
126756 (2002 DS7),2.61085329167415,0.240204726883331,17.36329026148843,3.415587122046438,91.9006454940976,1.983713989815115,3.237992593533185,4.2187316912601,15.52,N,N,
359755 (2011 UZ92),2.455020498928481,0.2133665040283411,13.56294442815483,212.5228785934593,324.1949873220538,1.931201357754197,2.978839640102764,3.8467227538565,16.69,N,N,
 74434 (1999 BZ20),2.6767120302589,0.1919887636200777,11.36142555750046,106.6229771521587,239.7486177077337,2.162813397002505,3.190610663515294,4.37936031456516,13.92,N,N,
135655 (2002 LC20),2.386905328149249,0.19153751874718,5.571489863175805,302.2800763845342,300.6181743915045,1.929723404111118,2.844087252187379,3.68774593658533,16.18,N,N,
       (2010 NR19),3.228357807190699,0.1061749001451666,11.36102808853403,115.6120519227696,270.6940734351066,2.885587239379357,3.57112837500204,5.80070388742106,17.12,N,N,
  4673 Bortle (1988 LF),2.549823376622402,0.05678476793359633,16.2023269561003,104.3838932809672,344.0792998746396,2.40503224790924,2.694614505335563,4.07167729137286,11.84,N,N,2.63989
       (2013 EG24),2.929594478823063,0.05637809695348447,12.67481976395949,43.02917946209077,352.2796416620361,2.764429517261583,3.094759440384542,5.01440565979524,15.2,N,N,
140327 (2001 SY339),3.035104985191468,0.1269572936596647,10.00547802892382,228.4326513547416,78.09709001095086,2.649776270298602,3.420433700084333,5.28772401048498,15.45,N,N,
 14227 (1999 XW85),3.105708870035889,0.1204048600172937,2.25231970840949,132.898816841667,85.4331728289801,2.73176642828475,3.479651311787027,5.47330079085074,12.51,N,N,
 30722 Biblioran (1978 RN5),2.718872781170419,0.335550740740625,11.13797644029359,356.0562517053332,15.42627642683625,1.806553005469162,3.631192556871676,4.48323529564345,13.83,N,N,
102897 (1999 XA11),2.695372321873562,0.05432020330861037,15.45876663659307,32.56748677963318,228.1765729692745,2.548959149356989,2.841785494390135,4.42523510393423,14.33,N,N,
  4530 Smoluchowski (1984 EP),3.115769168925434,0.100259173774676,5.212073620075316,164.7028946866635,14.89900613987229,2.803384726376361,3.428153611474506,5.499916747844,12.62,N,N,10.13741
  7910 Aleksola (1976 GD2),2.247859536937977,0.1386193278107415,8.36824266978985,202.736726237163,23.09558664665162,1.93626275891467,2.559456314961284,3.37024875498575,13.59,N,N,6.4197
       (2010 RY75),3.127260493290778,0.216471721429302,14.45186459158369,158.9632694130474,220.7553309712528,2.450297030950276,3.804223955631281,5.53037129772558,16.5,N,N,
185357 (2006 VP78),3.071466926731725,0.0733832797180723,3.323769732201311,157.4312621064159,286.7162738513607,2.846072610102563,3.296861243360887,5.38303206927052,15.69,N,N,
195912 (2002 RJ71),3.058348576218457,0.1434724030249113,8.139968993609749,232.8613518973539,134.1240767457639,2.619559956700579,3.497137195736335,5.34858222103855,15.98,N,N,
 15208 (1979 MW1),2.64277186711359,0.1810003136519443,4.650890895957021,244.4799100696881,127.2444338600113,2.164429330255496,3.121114403971684,4.29633081856786,14.45,N,N,
223651 (2004 OZ2),2.774924871052987,0.2059414931824421,3.308300457755249,222.5325587856285,102.6108151656347,2.203452699639239,3.346397042466736,4.62258649766211,16.66,N,N,
459879 (2014 JH22),2.328751477219346,0.2188664958336545,5.993399795586053,83.72745500067704,200.6293822986179,1.819065801732901,2.838437152705791,3.55379946263427,17.78,N,N,
108663 (2001 NE21),2.477741767341074,0.2457833830804922,3.543778100816581,166.430361213699,221.2933414008132,1.868754013364147,3.086729521318001,3.90024837851354,16.03,N,N,
273893 (2007 HL33),2.597202537710782,0.1174852477507608,12.41603021977779,50.66438963668944,92.32903569312396,2.292069554108926,2.902335521312638,4.18568874273023,16.15,N,N,
180892 (2005 JZ144),2.616208473717708,0.2076726726324016,4.535548569070685,86.94409058710774,233.9365137122598,2.072893467817216,3.159523479618201,4.2317180530932,15.91,N,N,
 21293 (1996 VS8),2.297127218105566,0.2351951823796594,5.34249259940243,84.27975981655092,253.5935998571615,1.756853963093948,2.837400473117185,3.48165531652134,14.87,N,N,
 31475 Robbacchus (1999 CH42),2.285753800382547,0.1210154751103988,6.005819853628362,346.2992668406504,272.6807701551774,2.009142218243853,2.56236538252124,3.45583006063698,14.8,N,N,
241589 (1997 SG14),5.164636865274158,0.07858608274104424,10.41464300634488,359.2385265685502,345.0341881654581,4.758768285252275,5.570505445296041,11.7372914475492,13.21,N,N,
322352 (2011 JP20),2.952081105765231,0.01213917941934559,2.988104583323751,128.7218553174681,118.3828555970024,2.916245263561887,2.987916947968575,5.07224975698382,16.68,N,N,
360844 (2005 OG17),2.863818118355634,0.1040398404910869,6.778862473243572,212.4617269651517,183.5496231001963,2.565866938126429,3.161769298584839,4.84647917386305,16.34,N,N,
304013 (2006 DV5),2.348399767223319,0.1745396942365589,10.03365708406317,121.615662082259,114.6583838191951,1.938510789906954,2.758288744539683,3.59887071343939,16.9,N,N,
173774 (2001 SY11),2.765506837924403,0.02100439836014187,4.715921848657703,29.80623698997975,203.643240388233,2.707419030632943,2.823594645215864,4.59907304373183,15.77,N,N,
235471 (2004 BZ15),3.171434961203557,0.1244792625380093,11.44585653881174,113.5093817922347,97.62708554688652,2.776657076045678,3.566212846361436,5.64796395537586,15.07,N,N,
 45769 (2000 LP36),2.748850859696296,0.1541977465946766,13.13604247782491,132.3212759408142,207.3574892906769,2.324984251406288,3.172717467986305,4.55758701060316,14.19,N,N,
242528 (2005 AD48),2.625266009556986,0.2806360799245825,6.868073957559513,118.020977733603,117.4194771556405,1.888521647875662,3.36201037123831,4.25371291342538,17.14,N,N,
139864 (2001 RW66),3.113550300372398,0.1211424731853118,9.11953418621458,325.882549073894,12.5893959850278,2.736367116598415,3.49073348414638,5.49404271543395,14.98,N,N,
419209 (2009 UJ110),2.777315408991549,0.2063323417248284,7.225196808872806,236.2772289222183,198.4062407086419,2.204265416945873,3.350365401037225,4.62856117184466,17.09,N,N,
 47924 (2000 GS113),2.997499157929444,0.1355809714107774,12.00190283781159,214.3221801846159,255.1045015111316,2.591095310294383,3.403903005564505,5.1897544135825,14.16,N,N,7.03
 32398 (2000 QT218),3.18738532836863,0.09775212670361248,5.639301166431815,350.3686983997825,265.0934158814791,2.875811633896704,3.498959022840556,5.69062616152189,14.34,N,N,
 68712 (2002 CO249),2.343683405301627,0.155311865315291,4.381803707029272,209.1481842239975,74.31371056149369,1.979681563915738,2.707685246687516,3.58803457810175,15.82,N,N,
244947 (2003 YP81),2.362038802629304,0.2452793889362955,4.95812268669098,69.13099130316931,330.4050261101347,1.782679368476569,2.941398236782038,3.63026847165454,17.06,N,N,
 18388 (1992 GX4),2.277791706062805,0.09781079105981937,4.148753800171474,38.68805218476211,174.3494274714043,2.054999097423306,2.500584314702303,3.4377889645674,14.62,N,N,
       (2010 NX67),3.113187349320145,0.2229336802748714,11.14544536235056,156.9185832315241,161.3940165498672,2.419153036151033,3.807221662489256,5.49308207069804,17.3,N,N,
112142 (2002 JV61),2.391682936337814,0.2407979621774506,6.134404343238521,140.0090113322902,162.3955538411834,1.815770559093087,2.967595313582541,3.69882351369796,16.34,N,N,
247930 (2003 WK136),2.53551143998278,0.2797266604265402,15.08471667614167,69.11664306476638,301.6812619957132,1.826261292403109,3.244761587562451,4.0374444852043,17.2,N,N,
213282 (2001 PA25),2.690967985423301,0.211050472366328,4.137177626902167,170.5899998511053,151.4529688242603,2.123037920977048,3.258898049869555,4.41439304326183,16.68,N,N,
 23922 Tawadros (1998 SR135),3.109616547334424,0.1528657432486279,3.954819255289646,96.21229273054604,251.8093928772678,2.634262702607915,3.584970392060933,5.48363399677418,14.24,N,N,
 10210 Nathues (1997 QV3),2.477766587622729,0.09065193077302648,5.896923894459198,191.7635869073733,75.18538115626288,2.253152262449836,2.702380912795623,3.90030698359518,13.62,N,N,
